NORAD_CAT_ID,OBJECT_NAME,OBJECT_TYPE,EPOCH,MEAN_MOTION,ECCENTRICITY,INCLINATION,RA_OF_ASC_NODE,ARG_OF_PERICENTER,MEAN_ANOMALY,BSTAR,MEAN_MOTION_DOT,MEAN_MOTION_DDOT,TLE_LINE0,TLE_LINE1,TLE_LINE2,SEMIMAJOR_AXIS,PERIOD,APOGEE,PERIGEE,DECAYED
55657.0,STARLINK-5328,PAYLOAD,2023-11-05 20:22:29,14.98342548,0.0002883,69.9986,159.9767,266.965,93.1179,0.0001255,1.405e-05,0.0,0 STARLINK-5328,1 55657U 23021AF  23309.84894765  .00001405  00000-0  12550-3 0  9990,2 55657  69.9986 159.9767 0002883 266.9650  93.1179 14.98342548 40930,6950.154,96.106,574.023,570.015,0.0
55657.0,STARLINK-5328,PAYLOAD,2023-11-05 21:58:37,14.98343963,0.0002885,69.9985,159.8083,267.5797,92.5032,0.00013703,1.543e-05,0.0,0 STARLINK-5328,1 55657U 23021AF  23309.91570605  .00001543  00000-0  13703-3 0  9996,2 55657  69.9985 159.8083 0002885 267.5797  92.5032 14.98343963 41248,6950.15,96.106,574.02,570.01,0.0
55657.0,STARLINK-5328,PAYLOAD,2023-11-06 07:35:25,14.98335753,0.0003241,69.9998,158.7987,267.7678,92.311,4.4807e-05,4.42e-06,0.0,0 STARLINK-5328,1 55657U 23021AF  23310.31626950  .00000442  00000-0  44807-4 0  9994,2 55657  69.9998 158.7987 0003241 267.7678  92.3110 14.98335753 41007,6950.175,96.107,574.293,569.788,0.0
55657.0,STARLINK-5328,PAYLOAD,2023-11-06 20:24:30,14.98328,0.0002801,69.9992,157.4507,260.4947,99.5895,-2.0171e-05,-3.34e-06,0.0,0 STARLINK-5328,1 55657U 23021AF  23310.85035651 -.00000334  00000-0 -20171-4 0  9995,2 55657  69.9992 157.4507 0002801 260.4947  99.5895 14.98328000 41089,6950.199,96.107,574.011,570.117,0.0
55657.0,STARLINK-5328,PAYLOAD,2023-11-06 22:00:39,14.98329512,0.0002905,69.999,157.2823,259.7592,100.324,-0.00014081,-1.773e-05,0.0,0 STARLINK-5328,1 55657U 23021AF  23310.91711881 -.00001773  00000-0 -14081-3 0  9998,2 55657  69.9990 157.2823 0002905 259.7592 100.3240 14.98329512 41396,6950.194,96.107,574.078,570.04,0.0
55657.0,STARLINK-5328,PAYLOAD,2023-11-07 07:37:27,14.98318951,0.0003196,69.9984,156.2752,257.0832,102.997,-6.345e-05,-8.5e-06,0.0,0 STARLINK-5328,1 55657U 23021AF  23311.31768410 -.00000850  00000-0 -63450-4 0  9993,2 55657  69.9984 156.2752 0003196 257.0832 102.9970 14.98318951 41157,6950.227,96.108,574.313,569.871,0.0
55657.0,STARLINK-5328,PAYLOAD,2023-11-07 14:02:00,14.98323798,0.0003032,69.9983,155.6017,266.2314,93.8499,-0.00016554,-2.067e-05,0.0,0 STARLINK-5328,1 55657U 23021AF  23311.58472544 -.00002067  00000-0 -16554-3 0  9996,2 55657  69.9983 155.6017 0003032 266.2314  93.8499 14.98323798 41495,6950.212,96.107,574.184,569.97,0.0
55657.0,STARLINK-5328,PAYLOAD,2023-11-08 14:04:01,14.98316576,0.0003114,69.9982,153.0759,264.4378,95.6426,-4.5052e-05,-6.3e-06,0.0,0 STARLINK-5328,1 55657U 23021AF  23312.58613178 -.00000630  00000-0 -45052-4 0  9997,2 55657  69.9982 153.0759 0003114 264.4378  95.6426 14.98316576 41643,6950.234,96.108,574.264,569.935,0.0
55657.0,STARLINK-5328,PAYLOAD,2023-11-08 20:28:34,14.98318894,0.0003095,69.9989,152.4045,264.3055,95.7751,-3.0966e-05,-4.62e-06,0.0,0 STARLINK-5328,1 55657U 23021AF  23312.85317252 -.00000462  00000-0 -30966-4 0  9992,2 55657  69.9989 152.4045 0003095 264.3055  95.7751 14.98318894 41388,6950.227,96.108,574.243,569.941,0.0
55657.0,STARLINK-5328,PAYLOAD,2023-11-08 22:04:42,14.98317623,0.0002931,69.9992,152.2362,259.9316,100.1512,-7.6326e-06,-1.84e-06,0.0,0 STARLINK-5328,1 55657U 23021AF  23312.91993316 -.00000184  00000-0 -76326-5 0  9992,2 55657  69.9992 152.2362 0002931 259.9316 100.1512 14.98317623 41699,6950.231,96.108,574.133,570.059,0.0
55657.0,STARLINK-5328,PAYLOAD,2023-11-09 14:06:02,14.98325786,0.0002829,69.9987,150.5556,261.7659,98.3179,0.00017116,1.95e-05,0.0,0 STARLINK-5328,1 55657U 23021AF  23313.58752907  .00001950  00000-0  17116-3 0  9995,2 55657  69.9987 150.5556 0002829 261.7659  98.3179 14.98325786 41793,6950.206,96.107,574.037,570.105,0.0
55657.0,STARLINK-5328,PAYLOAD,2023-11-09 17:18:18,14.98322202,0.0003138,69.9999,150.2184,260.4721,99.6083,0.00015875,1.801e-05,0.0,0 STARLINK-5328,1 55657U 23021AF  23313.72105146  .00001801  00000-0  15875-3 0  9993,2 55657  69.9999 150.2184 0003138 260.4721  99.6083 14.98322202 41518,6950.217,96.107,574.263,569.901,0.0
55657.0,STARLINK-5328,PAYLOAD,2023-11-09 22:06:43,14.98322096,0.0003236,69.9986,149.7134,237.3723,122.7124,0.00011356,1.262e-05,0.0,0 STARLINK-5328,1 55657U 23021AF  23313.92133258  .00001262  00000-0  11356-3 0  9991,2 55657  69.9986 149.7134 0003236 237.3723 122.7124 14.98322096 41847,6950.217,96.108,574.331,569.833,0.0
55657.0,STARLINK-5328,PAYLOAD,2023-11-10 06:07:24,14.98291082,0.0003171,69.998,148.8709,253.7833,106.2978,0.00070334,8.301e-05,0.0,0 STARLINK-5328,1 55657U 23021AF  23314.25514213  .00008301  00000-0  70334-3 0  9994,2 55657  69.9980 148.8709 0003171 253.7833 106.2978 14.98291082 41597,6950.313,96.109,574.382,569.974,0.0
55657.0,STARLINK-5328,PAYLOAD,2023-11-10 14:08:03,14.9833307,0.0002957,69.9981,148.0274,256.0469,104.0361,2.7233e-05,2.32e-06,0.0,0 STARLINK-5328,1 55657U 23021AF  23314.58893131  .00000232  00000-0  27233-4 0  9995,2 55657  69.9981 148.0274 0002957 256.0469 104.0361 14.98333070 41944,6950.183,96.107,574.104,569.993,0.0
55657.0,STARLINK-5328,PAYLOAD,2023-11-10 18:56:27,14.98335032,0.0002778,69.9988,147.5225,255.9241,104.161,3.4206e-05,3.15e-06,0.0,0 STARLINK-5328,1 55657U 23021AF  23314.78920974  .00000315  00000-0  34206-4 0  9993,2 55657  69.9988 147.5225 0002778 255.9241 104.1610 14.98335032 41676,6950.177,96.107,573.973,570.112,0.0
55657.0,STARLINK-5328,PAYLOAD,2023-11-10 22:08:43,14.98335106,0.0002884,69.9987,147.1856,257.7301,102.3535,6.963e-05,7.38e-06,0.0,0 STARLINK-5328,1 55657U 23021AF  23314.92272805  .00000738  00000-0  69630-4 0  9990,2 55657  69.9987 147.1856 0002884 257.7301 102.3535 14.98335106 41999,6950.177,96.107,574.047,570.038,0.0
55657.0,STARLINK-5328,PAYLOAD,2023-11-11 14:10:03,14.98338376,0.000298,69.9988,145.5023,262.5789,97.5032,9.4886e-05,1.04e-05,0.0,0 STARLINK-5328,1 55657U 23021AF  23315.59032302  .00001040  00000-0  94886-4 0  9998,2 55657  69.9988 145.5023 0002980 262.5789  97.5032 14.98338376 42090,6950.167,96.106,574.103,569.961,0.0
55657.0,STARLINK-5328,PAYLOAD,2023-11-11 18:58:27,14.98339812,0.0003,69.9988,144.9972,262.4821,97.5997,8.4873e-05,9.2e-06,0.0,0 STARLINK-5328,1 55657U 23021AF  23315.79060111  .00000920  00000-0  84873-4 0  9990,2 55657  69.9988 144.9972 0003000 262.4821  97.5997 14.98339812 41822,6950.163,96.106,574.113,569.942,0.0
55657.0,STARLINK-5328,PAYLOAD,2023-11-11 22:10:43,14.98340875,0.0002986,69.9988,144.6605,262.3229,97.7591,9.312e-05,1.019e-05,0.0,0 STARLINK-5328,1 55657U 23021AF  23315.92411914  .00001019  00000-0  93120-4 0  9991,2 55657  69.9988 144.6605 0002986 262.3229  97.7591 14.98340875 42144,6950.159,96.106,574.1,569.949,0.0
55657.0,STARLINK-5328,PAYLOAD,2023-11-12 14:12:04,14.98335992,0.0002969,69.9988,142.9775,263.8975,96.1845,-1.8559e-05,-3.14e-06,0.0,0 STARLINK-5328,1 55657U 23021AF  23316.59172120 -.00000314  00000-0 -18559-4 0  9990,2 55657  69.9988 142.9775 0002969 263.8975  96.1845 14.98335992 42248,6950.174,96.107,574.103,569.976,0.0
55657.0,STARLINK-5328,PAYLOAD,2023-11-12 19:00:28,14.98337881,0.000298,69.9989,142.4723,263.8642,96.2178,-2.377e-05,-3.77e-06,0.0,0 STARLINK-5328,1 55657U 23021AF  23316.79199907 -.00000377  00000-0 -23770-4 0  9994,2 55657  69.9989 142.4723 0002980 263.8642  96.2178 14.98337881 41979,6950.169,96.106,574.105,569.962,0.0
55657.0,STARLINK-5328,PAYLOAD,2023-11-12 22:12:44,14.98339081,0.000295,69.9989,142.1359,264.2496,95.8327,-9.9781e-06,-2.12e-06,0.0,0 STARLINK-5328,1 55657U 23021AF  23316.92551711 -.00000212  00000-0 -99781-5 0  9998,2 55657  69.9989 142.1359 0002950 264.2496  95.8327 14.98339081 42291,6950.165,96.106,574.08,569.98,0.0
55657.0,STARLINK-5328,PAYLOAD,2023-11-13 12:37:57,14.98338854,0.0002858,69.9991,140.6205,263.9866,96.0968,-5.7342e-05,-7.77e-06,0.0,0 STARLINK-5328,1 55657U 23021AF  23317.52635531 -.00000777  00000-0 -57342-4 0  9990,2 55657  69.9991 140.6205 0002858 263.9866  96.0968 14.98338854 42382,6950.166,96.106,574.017,570.044,0.0
55657.0,STARLINK-5328,PAYLOAD,2023-11-13 19:02:29,14.9833841,0.0002881,69.9992,139.9478,264.8897,95.1933,-5.7205e-05,-7.76e-06,0.0,0 STARLINK-5328,1 55657U 23021AF  23317.79339404 -.00000776  00000-0 -57205-4 0  9996,2 55657  69.9992 139.9478 0002881 264.8897  95.1933 14.98338410 42128,6950.167,96.106,574.034,570.03,0.0
55657.0,STARLINK-5328,PAYLOAD,2023-11-13 22:14:45,14.98337625,0.0002893,69.9991,139.6112,265.1345,94.9484,-6.3136e-05,-8.46e-06,0.0,0 STARLINK-5328,1 55657U 23021AF  23317.92691400 -.00000846  00000-0 -63136-4 0  9996,2 55657  69.9991 139.6112 0002893 265.1345  94.9484 14.98337625 42444,6950.169,96.107,574.045,570.024,0.0
55657.0,STARLINK-5328,PAYLOAD,2023-11-14 12:39:57,14.98331735,0.000288,69.9991,138.0964,265.0668,95.0162,-2.506e-05,-3.92e-06,0.0,0 STARLINK-5328,1 55657U 23021AF  23318.52775449 -.00000392  00000-0 -25060-4 0  9999,2 55657  69.9991 138.0964 0002880 265.0668  95.0162 14.98331735 42536,6950.188,96.107,574.054,570.051,0.0
55657.0,STARLINK-5328,PAYLOAD,2023-11-14 22:16:46,14.98330778,0.0002884,69.9992,137.0867,265.0687,95.0143,-4.1658e-05,-5.9e-06,0.0,0 STARLINK-5328,1 55657U 23021AF  23318.92831501 -.00000590  00000-0 -41658-4 0  9996,2 55657  69.9992 137.0867 0002884 265.0687  95.0143 14.98330778 42594,6950.19,96.107,574.06,570.051,0.0
55657.0,STARLINK-5328,PAYLOAD,2023-11-15 12:41:58,14.98332944,0.0002911,69.9996,135.5717,266.2024,93.8802,1.6251e-06,-7.4e-07,0.0,0 STARLINK-5328,1 55657U 23021AF  23319.52915149 -.00000074  00000-0  16251-5 0  9992,2 55657  69.9996 135.5717 0002911 266.2024  93.8802 14.98332944 42689,6950.184,96.107,574.072,570.026,0.0
55657.0,STARLINK-5328,PAYLOAD,2023-11-15 22:18:46,14.98333783,0.00029,69.9996,134.5618,266.2945,93.7882,1.2348e-05,5.4e-07,0.0,0 STARLINK-5328,1 55657U 23021AF  23319.92970979  .00000054  00000-0  12348-4 0  9997,2 55657  69.9996 134.5618 0002900 266.2945  93.7882 14.98333783 42744,6950.181,96.107,574.062,570.031,0.0
